{
  "links" : {
    "next" : "https://api.nasa.gov/neo/rest/v1/feed?start_date=2000-04-09&end_date=2000-04-09&detailed=true&api_key=t0TVs3DtDT2H8Oy2Zy8m2eVrNsAVKAexjcZXUckd",
    "prev" : "https://api.nasa.gov/neo/rest/v1/feed?start_date=2000-04-07&end_date=2000-04-07&detailed=true&api_key=t0TVs3DtDT2H8Oy2Zy8m2eVrNsAVKAexjcZXUckd",
    "self" : "https://api.nasa.gov/neo/rest/v1/feed?start_date=2000-04-08&end_date=2000-04-08&detailed=true&api_key=t0TVs3DtDT2H8Oy2Zy8m2eVrNsAVKAexjcZXUckd"
  },
  "element_count" : 8,
  "near_earth_objects" : {
    "2000-04-08" : [ {
      "links" : {
        "self" : "https://api.nasa.gov/neo/rest/v1/neo/2443104?api_key=t0TVs3DtDT2H8Oy2Zy8m2eVrNsAVKAexjcZXUckd"
      },
      "neo_reference_id" : "2443104",
      "name" : "443104 (2013 XK22)",
      "nasa_jpl_url" : "http://ssd.jpl.nasa.gov/sbdb.cgi?sstr=2443104",
      "absolute_magnitude_h" : 24.3,
      "estimated_diameter" : {
        "kilometers" : {
          "estimated_diameter_min" : 0.0366906138,
          "estimated_diameter_max" : 0.0820427065
        },
        "meters" : {
          "estimated_diameter_min" : 36.6906137531,
          "estimated_diameter_max" : 82.0427064882
        },
        "miles" : {
          "estimated_diameter_min" : 0.0227984834,
          "estimated_diameter_max" : 0.0509789586
        },
        "feet" : {
          "estimated_diameter_min" : 120.3760332259,
          "estimated_diameter_max" : 269.1689931548
        }
      },
      "is_potentially_hazardous_asteroid" : false,
      "close_approach_data" : [ {
        "close_approach_date" : "2000-04-08",
        "epoch_date_close_approach" : 955177200000,
        "relative_velocity" : {
          "kilometers_per_second" : "5.6036698382",
          "kilometers_per_hour" : "20173.2114173934",
          "miles_per_hour" : "12534.8490609909"
        },
        "miss_distance" : {
          "astronomical" : "0.1888780246",
          "lunar" : "73.4735565186",
          "kilometers" : "28255752",
          "miles" : "17557310"
        },
        "orbiting_body" : "Earth"
      } ],
      "orbital_data" : {
        "orbit_id" : "32",
        "orbit_determination_date" : "2017-04-06 09:20:26",
        "orbit_uncertainty" : "1",
        "minimum_orbit_intersection" : ".00120971",
        "jupiter_tisserand_invariant" : "5.847",
        "epoch_osculation" : "2458000.5",
        "eccentricity" : ".2033790298808143",
        "semi_major_axis" : "1.045736131195847",
        "inclination" : "6.992758235017535",
        "ascending_node_longitude" : "268.3829697145059",
        "orbital_period" : "390.599422841801",
        "perihelion_distance" : ".8330553313219194",
        "perihelion_argument" : "265.690015592778",
        "aphelion_distance" : "1.258416931069774",
        "perihelion_time" : "2457884.839735304097",
        "mean_anomaly" : "106.5994798138477",
        "mean_motion" : ".9216603480384704",
        "equinox" : "J2000"
      }
    }, {
      "links" : {
        "self" : "https://api.nasa.gov/neo/rest/v1/neo/3054338?api_key=t0TVs3DtDT2H8Oy2Zy8m2eVrNsAVKAexjcZXUckd"
      },
      "neo_reference_id" : "3054338",
      "name" : "(2000 SZ162)",
      "nasa_jpl_url" : "http://ssd.jpl.nasa.gov/sbdb.cgi?sstr=3054338",
      "absolute_magnitude_h" : 27.3,
      "estimated_diameter" : {
        "kilometers" : {
          "estimated_diameter_min" : 0.0092162655,
          "estimated_diameter_max" : 0.0206081961
        },
        "meters" : {
          "estimated_diameter_min" : 9.216265485,
          "estimated_diameter_max" : 20.6081961232
        },
        "miles" : {
          "estimated_diameter_min" : 0.0057267201,
          "estimated_diameter_max" : 0.0128053354
        },
        "feet" : {
          "estimated_diameter_min" : 30.2370924539,
          "estimated_diameter_max" : 67.6121941689
        }
      },
      "is_potentially_hazardous_asteroid" : false,
      "close_approach_data" : [ {
        "close_approach_date" : "2000-04-08",
        "epoch_date_close_approach" : 955177200000,
        "relative_velocity" : {
          "kilometers_per_second" : "5.0597593189",
          "kilometers_per_hour" : "18215.1335481788",
          "miles_per_hour" : "11318.1756205336"
        },
        "miss_distance" : {
          "astronomical" : "0.1884886671",
          "lunar" : "73.3220901489",
          "kilometers" : "28197502",
          "miles" : "17521116"
        },
        "orbiting_body" : "Earth"
      } ],
      "orbital_data" : {
        "orbit_id" : "11",
        "orbit_determination_date" : "2017-04-06 09:16:47",
        "orbit_uncertainty" : "7",
        "minimum_orbit_intersection" : ".00231865",
        "jupiter_tisserand_invariant" : "6.434",
        "epoch_osculation" : "2458000.5",
        "eccentricity" : ".1680377173349485",
        "semi_major_axis" : ".9289791182218895",
        "inclination" : ".8902395348895308",
        "ascending_node_longitude" : "12.62825428830821",
        "orbital_period" : "327.0448802228964",
        "perihelion_distance" : ".7728755877440499",
        "perihelion_argument" : "132.9048075639545",
        "aphelion_distance" : "1.085082648699729",
        "perihelion_time" : "2458152.866005937094",
        "mean_anomaly" : "192.2806273561909",
        "mean_motion" : "1.100766352785107",
        "equinox" : "J2000"
      }
    }, {
      "links" : {
        "self" : "https://api.nasa.gov/neo/rest/v1/neo/3408697?api_key=t0TVs3DtDT2H8Oy2Zy8m2eVrNsAVKAexjcZXUckd"
      },
      "neo_reference_id" : "3408697",
      "name" : "(2008 GU20)",
      "nasa_jpl_url" : "http://ssd.jpl.nasa.gov/sbdb.cgi?sstr=3408697",
      "absolute_magnitude_h" : 22.9,
      "estimated_diameter" : {
        "kilometers" : {
          "estimated_diameter_min" : 0.0699125232,
          "estimated_diameter_max" : 0.1563291544
        },
        "meters" : {
          "estimated_diameter_min" : 69.9125232246,
          "estimated_diameter_max" : 156.3291544087
        },
        "miles" : {
          "estimated_diameter_min" : 0.0434416145,
          "estimated_diameter_max" : 0.097138403
        },
        "feet" : {
          "estimated_diameter_min" : 229.3718026961,
          "estimated_diameter_max" : 512.8909429502
        }
      },
      "is_potentially_hazardous_asteroid" : false,
      "close_approach_data" : [ {
        "close_approach_date" : "2000-04-08",
        "epoch_date_close_approach" : 955177200000,
        "relative_velocity" : {
          "kilometers_per_second" : "4.8157256089",
          "kilometers_per_hour" : "17336.6121920187",
          "miles_per_hour" : "10772.2966145352"
        },
        "miss_distance" : {
          "astronomical" : "0.1364040241",
          "lunar" : "53.061164856",
          "kilometers" : "20405752",
          "miles" : "12679546"
        },
        "orbiting_body" : "Earth"
      } ],
      "orbital_data" : {
        "orbit_id" : "24",
        "orbit_determination_date" : "2017-04-06 09:03:43",
        "orbit_uncertainty" : "0",
        "minimum_orbit_intersection" : ".134009",
        "jupiter_tisserand_invariant" : "3.807",
        "epoch_osculation" : "2458000.5",
        "eccentricity" : ".4115852083718057",
        "semi_major_axis" : "1.924463470761617",
        "inclination" : "5.610369055748167",
        "ascending_node_longitude" : "203.5169069055555",
        "orbital_period" : "975.1309363231719",
        "perihelion_distance" : "1.132382772144268",
        "perihelion_argument" : "349.6552844608141",
        "aphelion_distance" : "2.716544169378965",
        "perihelion_time" : "2458459.924690598895",
        "mean_anomaly" : "190.389045763195",
        "mean_motion" : ".36918119053572",
        "equinox" : "J2000"
      }
    } ]
  }
}